0 FENGYUN 1C DEB
1 32203U 99025CUZ 13285.93530737  .00005954  00000-0  36586-3 0  5014
2 32203 097.0280 274.3152 0423896 143.2609 220.0718 14.57718042330239
0 FENGYUN 1C DEB
1 32203U 99025CUZ 13286.78235102  .00005836  00000-0  35765-3 0  5024
2 32203 097.0267 275.0299 0424328 140.5713 345.1422 14.57720375330357
0 FENGYUN 1C DEB
1 32203U 99025CUZ 13288.43479529  .00008566  00000-0  52275-3 0  5030
2 32203 097.0262 276.4322 0424267 135.2895 016.8896 14.57748752330590
0 FENGYUN 1C DEB
1 32203U 99025CUZ 13289.46399895  .00007976  00000-0  48651-3 0  5049
2 32203 097.0262 277.3046 0424325 131.9868 018.0755 14.57765824330745
0 FENGYUN 1C DEB
1 32203U 99025CUZ 13290.76345025  .00009358  00000-0  56971-3 0  5051
2 32203 097.0259 278.4071 0424347 127.8460 357.5645 14.57783040330937
0 FENGYUN 1C DEB
1 32203U 99025CUZ 13293.44499041  .00008983  00000-0  54633-3 0  5064
2 32203 097.0273 280.6800 0424327 119.2552 030.5331 14.57821349331322
0 FENGYUN 1C DEB
1 32203U 99025CUZ 13294.93337105  .00009071  00000-0  55145-3 0  5070
2 32203 097.0280 281.9422 0424264 114.5020 281.8452 14.57843971331546
